[{"OBJECT_NAME":"KAZEOSAT 2","OBJECT_ID":"2014-033A","EPOCH":"2026-03-09T22:28:55.871328","MEAN_MOTION":14.85341889,"ECCENTRICITY":0.0007207,"INCLINATION":97.5485,"RA_OF_ASC_NODE":273.7466,"ARG_OF_PERICENTER":292.4947,"MEAN_ANOMALY":67.5505,"EPHEMERIS_TYPE":0,"CLASSIFICATION_TYPE":"U","NORAD_CAT_ID":40010,"ELEMENT_SET_NO":999,"REV_AT_EPOCH":63422,"BSTAR":0.00022131072,"MEAN_MOTION_DOT":1.854e-5,"MEAN_MOTION_DDOT":0},{"OBJECT_NAME":"SL-14 R\/B","OBJECT_ID":"1991-039B","EPOCH":"2026-03-09T15:48:43.025184","MEAN_MOTION":14.81841975,"ECCENTRICITY":0.00211429,"INCLINATION":82.523,"RA_OF_ASC_NODE":136.5072,"ARG_OF_PERICENTER":162.3905,"MEAN_ANOMALY":197.8047,"EPHEMERIS_TYPE":0,"CLASSIFICATION_TYPE":"U","NORAD_CAT_ID":21398,"ELEMENT_SET_NO":999,"REV_AT_EPOCH":85439,"BSTAR":6.0636888e-5,"MEAN_MOTION_DOT":5.04e-6,"MEAN_MOTION_DDOT":0}]
